{"fetched_at":"2026-03-29T02:12:04Z","count":15717,"tles":[{"name":"NAVSTAR 52 (USA 168)","line1":"1 27704U 03010A   26085.69410974 -.00000077  00000+0  00000+0 0  9998","line2":"2 27704  54.8610 328.2680 0004355 348.6904  21.0754  1.94742947168311","category":"GPS"}]}